LEGION 1                
1 59625U 24081A   26197.78232111  .00001834  00000+0  96611-4 0  9994
2 59625  97.5011 275.3255 0007737 263.0786  96.9567 15.16849798122024
LEGION 2                
1 59626U 24081B   26197.81273010  .00001883  00000+0  99095-4 0  9995
2 59626  97.5011 275.4523 0010326 227.3079 132.7285 15.16829010122032
LEGION 3                
1 60452U 24146A   26197.58882500  .00001303  00000+0  80998-4 0  9999
2 60452  45.0017 232.9186 0008080 341.6257  18.4328 15.15659955106487
LEGION 4                
1 60453U 24146B   26197.78626863  .00001640  00000+0  98329-4 0  9991
2 60453  45.0028 323.7279 0009015 123.5936 236.5804 15.15687862105368
LEGION 5                
1 62900U 25025A   26197.32495157  .00000853  00000+0  57690-4 0  9998
2 62900  45.0015 145.1594 0007998 296.2108  63.7948 15.15700804 78917
LEGION 6                
1 62901U 25025B   26197.78544421  .00001808  00000+0  10695-3 0  9992
2 62901  45.0015  51.8378 0010781 284.6352  75.3331 15.15693770 80121
